IRIDIUM 136             
1 42962U 17061H   24296.45355037  .00000267  00000+0  88372-4 0  9999
2 42962  86.3916 277.1006 0002220  92.9162 267.2287 14.34217769368449
